COSMOS 2419 (714)       
1 28915U 05050A   17092.89994171  .00000020  00000-0  00000-0 0  9994
2 28915  65.4615  68.3870 0017203 346.2432 295.7947  2.13110425 87729
COSMOS 2425 (716)       
1 29670U 06062A   17092.91633347  .00000002  00000-0  10000-3 0  9999
2 29670  65.4981 307.4002 0022479 350.5425 357.3198  2.13105023 79923
COSMOS 2426 (717)       
1 29671U 06062B   17092.64362111  .00000001  00000-0  10000-3 0  9997
2 29671  65.5146 307.4966 0016247 158.4992 199.0194  2.13103095 79921
COSMOS 2424 (715)       
1 29672U 06062C   17092.84547502  .00000002  00000-0  10000-3 0  9990
2 29672  65.4985 307.4136 0015837 157.0514 170.8107  2.13102209 79927
COSMOS 2433 (720)       
1 32275U 07052A   17092.79663429  .00000019  00000-0  10000-3 0  9992
2 32275  65.4762  68.1677 0005094 285.5071 162.7070  2.13104871 73440
COSMOS 2432 (719)       
1 32276U 07052B   17092.63219650  .00000019  00000-0  10000-3 0  9999
2 32276  65.4882  68.2437 0013971 329.9438 305.1520  2.13104175 73431
COSMOS 2434 (721)       
1 32393U 07065A   17092.78918856  .00000002  00000-0  00000-0 0  9991
2 32393  65.1137 306.5891 0005293  88.8551 243.6242  2.13102937 72146
COSMOS 2436 (723)       
1 32395U 07065C   17092.30140355  .00000001  00000-0  10000-3 0  9995
2 32395  65.1240 306.6514 0016493   5.4161   1.1572  2.13104331 72077
COSMOS 2443 (725)       
1 33379U 08046B   17092.69820237  .00000018  00000-0  00000-0 0  9998
2 33379  65.4061  67.5608 0015765 188.1419  86.1153  2.13101604 66292
COSMOS 2456 (730)       
1 36111U 09070A   17092.72687907 -.00000007  00000-0  00000-0 0  9991
2 36111  64.1792 186.1561 0004137 317.2454 138.2567  2.13102883 56812
COSMOS 2457 (733)       
1 36112U 09070B   17092.53476505 -.00000004  00000-0  00000-0 0  9998
2 36112  64.1612 186.0829 0006479 165.3902 271.6434  2.13101576 56814
COSMOS 2458 (734)       
1 36113U 09070C   17092.69770130 -.00000007  00000-0  10000-3 0  9994
2 36113  64.1665 186.0854 0001430  17.0303 232.8661  2.13102152 56813
COSMOS 2459 (731)       
1 36400U 10007A   17092.76936359  .00000018  00000-0  10000-3 0  9991
2 36400  65.3851  67.2836 0029592 348.5019 301.4967  2.13102378 55166
COSMOS 2461 (735)       
1 36401U 10007B   17092.83278282  .00000018  00000-0  10000-3 0  9994
2 36401  65.3779  67.2598 0005399  41.7300 207.5117  2.13102367 55166
COSMOS 2460 (732)       
1 36402U 10007C   17092.52661468  .00000017  00000-0  10000-3 0  9992
2 36402  65.3684  67.2439 0002905 309.8441 105.9471  2.13101872 55164
COSMOS 2465 (737)       
1 37138U 10041B   17092.77432507  .00000001  00000-0  00000-0 0  9993
2 37138  64.7120 306.6161 0034567 169.1044 196.1025  2.13105712 51245
COSMOS 2464 (736)       
1 37139U 10041C   17092.51058637  .00000000  00000-0  00000-0 0  9993
2 37139  64.7205 306.6240 0024848  15.0171 331.4672  2.13102685 51225
COSMOS 2471 (701K)      
1 37372U 11009A   17092.63234698  .00000017  00000-0  00000-0 0  9991
2 37372  65.3656  67.1887 0008902 246.6347  24.8171  2.13107791 47435
COSMOS 2474 (742)       
1 37829U 11055A   17092.85182096 -.00000009  00000-0  00000-0 0  9999
2 37829  64.5031 186.6853 0008049 248.7711 162.7070  2.13101953 42811
COSMOS 2476 (744)       
1 37867U 11064A   17092.38731634 -.00000002  00000-0  00000-0 0  9990
2 37867  64.4832 186.7746 0017236 243.6665 217.3785  2.13102048 42156
COSMOS 2477 (745)       
1 37868U 11064B   17092.59090696 -.00000005  00000-0  00000-0 0  9993
2 37868  64.4917 186.8118 0015093 245.0292 191.3716  2.13101824 42118
COSMOS 2475 (743)       
1 37869U 11064C   17092.51859744 -.00000004  00000-0  00000-0 0  9992
2 37869  64.4995 186.8041 0020001 272.1680  65.1115  2.13101909 42112
COSMOS 2485 (747)       
1 39155U 13019A   17092.79645226 -.00000008  00000-0  00000-0 0  9996
2 39155  64.6529 186.7737 0017593 238.2335 221.7376  2.13102019 30636
COSMOS 2492 (754)       
1 39620U 14012A   17092.29249897  .00000017  00000-0  10000-3 0  9999
2 39620  65.2577  67.2001 0017545 327.4948 139.8491  2.13103535 23574
COSMOS 2500 (755)       
1 40001U 14032A   17092.69787147  .00000017  00000-0  00000-0 0  9991
2 40001  65.1987  67.1884 0006204 233.9383  47.5728  2.13102925 21797
COSMOS 2501 (702K)      
1 40315U 14075A   17092.37527238 -.00000003  00000-0  00000-0 0  9990
2 40315  64.4475 307.9974 0013384 208.0227 353.0704  2.13098574 18194
COSMOS 2514 (751)       
1 41330U 16008A   17092.66089637  .00000017  00000-0  00000-0 0  9998
2 41330  64.9988  67.3530 0009618 233.6344 199.3136  2.13103515  8966
COSMOS 2516 (753)       
1 41554U 16032A   17092.40725045 -.00000002  00000-0  00000-0 0  9990
2 41554  64.6642 307.7400 0009405 222.0954 269.2801  2.13101739  6564
